KUZGTU 1 (RS47S)        
1 57217U 23091AV  26167.11839935  .00010475  00000+0  36421-3 0  9993
2 57217  97.5066 231.5874 0012337 101.3117 258.9510 15.29842808164218
SONATE-2                
1 59112U 24043Q   26166.66172283  .00034167  00000+0  44548-3 0  9995
2 59112  97.5531 316.9638 0007014 200.7175 159.3797 15.58618776127656
MESAT1                  
1 60209U 24125G   26167.14602183  .00048436  00000+0  53014-3 0  9998
2 60209  97.2286  24.6049 0009434 207.5377 152.5383 15.63102289109407
OOV-CUBE (TUBSAT-30)    
1 60240U 24128F   26166.59161287  .00001776  00000+0  14516-3 0  9999
2 60240  61.9945 231.1374 0044790 133.3400 227.1438 15.02768887105877
COLIBRI-S (RS67S)       
1 61746U 24199M   26167.15666031  .00018549  00000+0  35992-3 0  9996
2 61746  97.2992  41.0017 0006270 284.1951  75.8602 15.47690881137257
HORS 3 (RS81S)          
1 61753U 24199U   26167.18853964  .00031737  00000+0  47508-3 0  9990
2 61753  97.2976  43.0095 0003734 284.0373  76.0466 15.54915208137403
HORS 4 (RS82S)          
1 61754U 24199V   26167.15213370  .00041392  00000+0  51972-3 0  9997
2 61754  97.2924  44.1673 0003053 265.3095  94.7813 15.59602852137482
SIT-2086                
1 61764U 24199AF  26167.16556935  .00029781  00000+0  47745-3 0  9997
2 61764  97.2933  43.4661 0004502 254.9783 105.0972 15.53027768134277
HYPERVIEW 1G (RS66S)    
1 61772U 24199AP  26167.17352397  .00127022  00000+0  82451-3 0  9993
2 61772  97.2869  46.8423 0003516 224.3038 135.7947 15.75610981134513
ALTAIR (RS65S)          
1 61779U 24199AW  26167.20055337  .00007127  00000+0  19873-3 0  9999
2 61779  97.3027  36.5582 0011204 315.3038  44.7303 15.37010429136968
ASRTU-1 (AO-123)        
1 61781U 24199AY  26167.18759058  .00006291  00000+0  18334-3 0  9992
2 61781  97.2998  35.8677 0012396 318.2479  41.7818 15.35663814133772
SAMSAT-IONOSPHERE (RS7*)
1 61784U 24199BB  26167.15999632  .00037786  00000+0  51250-3 0  9993
2 61784  97.2945  43.0235 0005856 281.7658  78.2941 15.57549140137409
RTU MIREA 1 (RS51S)     
1 61785U 24199BC  26167.18668133  .00047902  00000+0  56959-3 0  9998
2 61785  97.2933  43.8774 0005498 273.4107  86.6522 15.60993074134310
TEVEL2-4                
1 63213U 25052D   26166.68245348  .00015491  00000+0  46436-3 0  9995
2 63213  97.3913  63.0717 0004849 106.3363 253.8414 15.34567843 69884
TEVEL2-5                
1 63214U 25052E   26166.96364296  .00014759  00000+0  44491-3 0  9996
2 63214  97.3907  63.3018 0004761 106.7826 253.3939 15.34401934 69926
TEVEL2-6                
1 63215U 25052F   26167.17159244  .00015102  00000+0  45558-3 0  9994
2 63215  97.3912  63.4942 0004675 107.3196 252.8558 15.34373601 69954
TEVEL2-1                
1 63217U 25052H   26166.67835869  .00014861  00000+0  45615-3 0  9999
2 63217  97.3883  62.6268 0004711 116.5645 243.6081 15.33827137 69863
TEVEL2-3                
1 63218U 25052J   26167.19494450  .00014646  00000+0  44863-3 0  9990
2 63218  97.3885  63.1651 0004682 115.6009 244.5717 15.33896026 69947
TEVEL2-2                
1 63219U 25052K   26166.67868108  .00015064  00000+0  46221-3 0  9993
2 63219  97.3885  62.6296 0004687 116.9580 243.2142 15.33835792 69862
TEVEL2-9                
1 63237U 25052AD  26167.17673258  .00013111  00000+0  42794-3 0  9991
2 63237  97.3944  62.5048 0007708 133.6169 226.5714 15.31871901 69878
TEVEL2-7                
1 63238U 25052AE  26167.08677737  .00013005  00000+0  42844-3 0  9996
2 63238  97.3948  62.3318 0007779 134.1699 226.0183 15.31574840 69858
TEVEL2-8                
1 63239U 25052AF  26166.96434749  .00012397  00000+0  40879-3 0  9996
2 63239  97.3947  62.1866 0007791 135.1271 225.0601 15.31555084 69836
INNOSAT 16 (RS92S7)     
1 64878U 25155C   26167.14928707  .00004900  00000+0  19639-3 0  9994
2 64878  97.4565 134.2803 0010430 178.9939 181.1322 15.25448086 80511
GEOSCAN 6 (RS92S6)      
1 64879U 25155D   26167.20063770  .00008396  00000+0  29024-3 0  9994
2 64879  97.4557 135.7487 0008234 165.4636 194.6843 15.30135692 80611
GEOSCAN 1 (RS92S1)      
1 64880U 25155E   26167.13809889  .00009012  00000+0  30571-3 0  9992
2 64880  97.4553 135.8329 0008167 165.4215 194.7263 15.30728895 80613
239ALFEROV (RS61S)      
1 64881U 25155F   26167.17451749  .00011863  00000+0  37513-3 0  9995
2 64881  97.4553 136.4276 0007903 162.1878 197.9643 15.32916747 80656
GEOSCAN 2 (RS92S2)      
1 64890U 25155Q   26167.19732850  .00009247  00000+0  31100-3 0  9991
2 64890  97.4552 136.0445 0008019 152.3418 207.8250 15.31001109 80638
GEOSCAN 5 (RS92S5)      
1 64891U 25155R   26167.16375177  .00011935  00000+0  37374-3 0  9990
2 64891  97.4546 136.5539 0006603 165.7344 194.4086 15.33234252 80664
GEOSCAN 4 (RS92S4)      
1 64892U 25155S   26167.14804686  .00012106  00000+0  37723-3 0  9990
2 64892  97.4549 136.5861 0006682 165.5671 194.5764 15.33387857 80668
GEOSCAN 3 (RS92S3)      
1 64893U 25155T   26167.15014198  .00014670  00000+0  42884-3 0  9995
2 64893  97.4538 137.0149 0006609 163.6271 196.5187 15.35365827 80695
