OBJECT_NAME,OBJECT_ID,EPOCH,MEAN_MOTION,ECCENTRICITY,INCLINATION,RA_OF_ASC_NODE,ARG_OF_PERICENTER,MEAN_ANOMALY,EPHEMERIS_TYPE,CLASSIFICATION_TYPE,NORAD_CAT_ID,ELEMENT_SET_NO,REV_AT_EPOCH,BSTAR,MEAN_MOTION_DOT,MEAN_MOTION_DDOT
KUZGTU 1 (RS47S),2023-091AV,2026-06-16T02:50:29.703840,15.29842808,.0012337,97.5066,231.5874,101.3117,258.9510,0,U,57217,999,16421,.36421E-3,.10475E-3,0
SONATE-2,2024-043Q,2026-06-15T15:52:52.852512,15.58618776,.00070146,97.5531,316.9638,200.7175,159.3797,0,U,59112,999,12765,.44547502E-3,.34167E-3,0
MESAT1,2024-125G,2026-06-16T03:30:16.286112,15.63102289,.0009434,97.2286,24.6049,207.5377,152.5383,0,U,60209,999,10940,.53014E-3,.48436E-3,0
OOV-CUBE (TUBSAT-30),2024-128F,2026-06-15T14:11:55.351968,15.02768887,.00447908,61.9945,231.1374,133.3400,227.1438,0,U,60240,999,10587,.14515979E-3,.1776E-4,0
COLIBRI-S (RS67S),2024-199M,2026-06-16T03:45:35.450784,15.47690881,.000627,97.2992,41.0017,284.1951,75.8602,0,U,61746,999,13725,.35992E-3,.18549E-3,0
HORS 3 (RS81S),2024-199U,2026-06-16T04:31:29.824896,15.54915208,.0003734,97.2976,43.0095,284.0373,76.0466,0,U,61753,999,13740,.47508E-3,.31737E-3,0
HORS 4 (RS82S),2024-199V,2026-06-16T03:39:04.351680,15.59602852,.0003053,97.2924,44.1673,265.3095,94.7813,0,U,61754,999,13748,.51972E-3,.41392E-3,0
SIT-2086,2024-199AF,2026-06-16T03:58:25.191840,15.53027768,.0004502,97.2933,43.4661,254.9783,105.0972,0,U,61764,999,13427,.47745E-3,.29781E-3,0
HYPERVIEW 1G (RS66S),2024-199AP,2026-06-16T04:09:52.471008,15.75610981,.0003516,97.2869,46.8423,224.3038,135.7947,0,U,61772,999,13451,.82451E-3,.127022E-2,0
ALTAIR (RS65S),2024-199AW,2026-06-16T04:48:47.811168,15.37010429,.0011204,97.3027,36.5582,315.3038,44.7303,0,U,61779,999,13696,.19873E-3,.7127E-4,0
ASRTU-1 (AO-123),2024-199AY,2026-06-16T04:30:07.826112,15.35663814,.0012396,97.2998,35.8677,318.2479,41.7818,0,U,61781,999,13377,.18334E-3,.6291E-4,0
SAMSAT-IONOSPHERE (RS75S),2024-199BB,2026-06-16T03:50:23.682048,15.57549140,.0005856,97.2945,43.0235,281.7658,78.2941,0,U,61784,999,13740,.5125E-3,.37786E-3,0
RTU MIREA 1 (RS51S),2024-199BC,2026-06-16T04:28:49.266912,15.60993074,.0005498,97.2933,43.8774,273.4107,86.6522,0,U,61785,999,13431,.56959E-3,.47902E-3,0
TEVEL2-4,2025-052D,2026-06-15T16:22:43.980672,15.34567843,.00048498,97.3913,63.0717,106.3363,253.8414,0,U,63213,999,6988,.46435922E-3,.15491E-3,0
TEVEL2-5,2025-052E,2026-06-15T23:07:38.751744,15.34401934,.0004761,97.3907,63.3018,106.7826,253.3939,0,U,63214,999,6992,.44491E-3,.14759E-3,0
TEVEL2-6,2025-052F,2026-06-16T04:07:05.586816,15.34373601,.0004675,97.3912,63.4942,107.3196,252.8558,0,U,63215,999,6995,.45558E-3,.15102E-3,0
TEVEL2-1,2025-052H,2026-06-15T16:16:50.190816,15.33827137,.00047118,97.3883,62.6268,116.5645,243.6081,0,U,63217,999,6986,.45614808E-3,.14861E-3,0
TEVEL2-3,2025-052J,2026-06-16T04:40:43.204800,15.33896026,.0004682,97.3885,63.1651,115.6009,244.5717,0,U,63218,999,6994,.44863E-3,.14646E-3,0
TEVEL2-2,2025-052K,2026-06-15T16:17:18.045312,15.33835792,.00046877,97.3885,62.6296,116.9580,243.2142,0,U,63219,999,6986,.4622071E-3,.15064E-3,0
TEVEL2-9,2025-052AD,2026-06-16T04:14:29.694912,15.31871901,.0007708,97.3944,62.5048,133.6169,226.5714,0,U,63237,999,6987,.42794E-3,.13111E-3,0
TEVEL2-7,2025-052AE,2026-06-16T02:04:57.564768,15.31574840,.0007779,97.3948,62.3318,134.1699,226.0183,0,U,63238,999,6985,.42844E-3,.13005E-3,0
TEVEL2-8,2025-052AF,2026-06-15T23:08:39.623136,15.31555084,.0007791,97.3947,62.1866,135.1271,225.0601,0,U,63239,999,6983,.40879E-3,.12397E-3,0
INNOSAT 16 (RS92S7),2025-155C,2026-06-16T03:34:58.402848,15.25448086,.001043,97.4565,134.2803,178.9939,181.1322,0,U,64878,999,8051,.19639E-3,.49E-4,0
GEOSCAN 6 (RS92S6),2025-155D,2026-06-16T04:48:55.097280,15.30135692,.0008234,97.4557,135.7487,165.4636,194.6843,0,U,64879,999,8061,.29024E-3,.8396E-4,0
GEOSCAN 1 (RS92S1),2025-155E,2026-06-16T03:18:51.744096,15.30728895,.0008167,97.4553,135.8329,165.4215,194.7263,0,U,64880,999,8061,.30571E-3,.9012E-4,0
239ALFEROV (RS61S),2025-155F,2026-06-16T04:11:18.311136,15.32916747,.0007903,97.4553,136.4276,162.1878,197.9643,0,U,64881,999,8065,.37513E-3,.11863E-3,0
GEOSCAN 2 (RS92S2),2025-155Q,2026-06-16T04:44:09.182400,15.31001109,.0008019,97.4552,136.0445,152.3418,207.8250,0,U,64890,999,8063,.311E-3,.9247E-4,0
GEOSCAN 5 (RS92S5),2025-155R,2026-06-16T03:55:48.152928,15.33234252,.0006603,97.4546,136.5539,165.7344,194.4086,0,U,64891,999,8066,.37374E-3,.11935E-3,0
GEOSCAN 4 (RS92S4),2025-155S,2026-06-16T03:33:11.248704,15.33387857,.0006682,97.4549,136.5861,165.5671,194.5764,0,U,64892,999,8066,.37723E-3,.12106E-3,0
GEOSCAN 3 (RS92S3),2025-155T,2026-06-16T03:36:12.267072,15.35365827,.0006609,97.4538,137.0149,163.6271,196.5187,0,U,64893,999,8069,.42884E-3,.1467E-3,0
